STARLINK-1007           
1 44713U 19074A   24204.58334491  .01282344  00000+0  10141-1 0  9990
2 44713  53.0543 332.8174 0001140  69.7897  67.4803 15.67996355259292
STARLINK-1008           
1 44714U 19074B   24204.77224000  .00014385  00000+0  98283-3 0  9998
2 44714  53.0577 337.2997 0001278 130.0598 230.0503 15.06392630259254
STARLINK-1009           
1 44715U 19074C   24204.76120367  .00008365  00000+0  57998-3 0  9998
2 44715  53.0570 337.3510 0001519  84.7146 275.4016 15.06389691259246
STARLINK-1010           
1 44716U 19074D   24203.65171572  .00024507  00000+0  16569-2 0  9994
2 44716  53.0557 342.3355 0001344  74.1885 285.9252 15.06433989258892
STARLINK-1011           
1 44717U 19074E   24204.44602813  .00003256  00000+0  23731-3 0  9998
2 44717  53.0548 358.7688 0001358  97.2657 262.8486 15.06413796258753
STARLINK-1012           
1 44718U 19074F   24204.75011914  .00014687  00000+0  10027-2 0  9992
2 44718  53.0558 337.4057 0001432  62.2337 297.8797 15.06405330259242
STARLINK-1013           
1 44719U 19074G   24204.35941590  .00017654  00000+0  12011-2 0  9993
2 44719  53.0555 339.1633 0001515  72.2002 287.9152 15.06399868260145
STARLINK-1014           
1 44720U 19074H   24204.37783703  .00026877  00000+0  15906-2 0  9990
2 44720  53.0562 336.3017 0002465  83.9365 276.1907 15.11268700259069
STARLINK-1015           
1 44721U 19074J   24204.38598877  .00006589  00000+0  47072-3 0  9996
2 44721  53.0553 339.2381 0001786  82.3670 277.7522 15.05600028259014
STARLINK-1017           
1 44723U 19074L   24204.38520867  .00002611  00000+0  19407-3 0  9995
2 44723  53.0556 339.0418 0001378  84.3686 275.7461 15.06409616259026
STARLINK-1019           
1 44724U 19074M   24204.41470011  .00005823  00000+0  40947-3 0  9996
2 44724  53.0566 338.9107 0001349  68.9272 291.1862 15.06403293259020
STARLINK-1020           
1 44725U 19074N   24203.75675968  .00016249  00000+0  11066-2 0  9994
2 44725  53.0559   1.8662 0001393  84.7527 275.3620 15.06420994258643
STARLINK-1021           
1 44726U 19074P   24204.74275893  .00002900  00000+0  21351-3 0  9996
2 44726  53.0562 337.4401 0001346  76.4686 283.6452 15.06397378259240
STARLINK-1027           
1 44732U 19074V   24204.40916396  .00007821  00000+0  54319-3 0  9993
2 44732  53.0558 358.9440 0001168  75.1288 284.9830 15.06409754258749
STARLINK-1028           
1 44733U 19074W   24204.40732375  .00016693  00000+0  11368-2 0  9990
2 44733  53.0562 338.9442 0001326  98.1347 261.9793 15.06402694259023
STARLINK-1029           
1 44734U 19074X   24204.42207579 -.00001648  00000+0 -91768-4 0  9996
2 44734  53.0533 258.8786 0001316  89.1891 270.9248 15.06393959260127
STARLINK-1030           
1 44735U 19074Y   24203.75306407  .00016996  00000+0  11564-2 0  9996
2 44735  53.0557   1.8800 0001253 100.7655 259.3475 15.06424969258648
STARLINK-1031           
1 44736U 19074Z   24203.70147395  .00013431  00000+0  91831-3 0  9998
2 44736  53.0557   2.1176 0001454  76.2293 283.8858 15.06420277258642
STARLINK-1032           
1 44737U 19074AA  24204.44234219  .00003055  00000+0  22385-3 0  9992
2 44737  53.0555 358.7839 0001354  95.3621 264.7523 15.06407929258751
STARLINK-1035           
1 44740U 19074AD  24204.43865839  .00006752  00000+0  47156-3 0  9993
2 44740  53.0550 358.8116 0001495  88.2218 271.8942 15.06416627258757
STARLINK-1036           
1 44741U 19074AE  24204.44973127  .00010985  00000+0  75488-3 0  9997
2 44741  53.0532 358.7499 0001445  87.3165 272.7989 15.06417414258753
STARLINK-1038           
1 44743U 19074AG  24204.49947678  .00006067  00000+0  42573-3 0  9991
2 44743  53.0540  18.5282 0001414  81.2563 278.8586 15.06412519258656
STARLINK-1039           
1 44744U 19074AH  24204.51053387  .00001433  00000+0  11505-3 0  9993
2 44744  53.0557  18.4832 0001267 106.4781 253.6347 15.06405370258656
STARLINK-1041           
1 44746U 19074AK  24204.91667824  .00172246  00000+0  11234-2 0  9995
2 44746  53.0517 344.8439 0004974 324.4671  23.3590 15.74846376259160
STARLINK-1042           
1 44747U 19074AL  24204.48249350  .00013935  00000+0  66827-3 0  9996
2 44747  53.0580   9.8085 0003872 122.2834 237.8536 15.19167324258616
STARLINK-1043           
1 44748U 19074AM  24203.75859874  .00011490  00000+0  78860-3 0  9998
2 44748  53.0543  21.8563 0001279  99.1310 260.9824 15.06417124258542
STARLINK-1046           
1 44751U 19074AQ  24203.77334441  .00012763  00000+0  87353-3 0  9993
2 44751  53.0546  21.7893 0001543  94.1372 265.9793 15.06425706258377
STARLINK-1047           
1 44752U 19074AR  24203.72726584  .00012276  00000+0  84090-3 0  9996
2 44752  53.0569   1.9958 0001469  98.1026 262.0130 15.06429993258816
STARLINK-1048           
1 44753U 19074AS  24204.39626542  .00006198  00000+0  43441-3 0  9995
2 44753  53.0563 338.9919 0001339  93.4635 266.6507 15.06415519259022
STARLINK-1052           
1 44757U 19074AW  24204.91667824  .00114306  00000+0  40377-2 0  9990
2 44757  53.0415 333.7402 0003440 321.5021 207.1831 15.28325425259324
STARLINK-1053           
1 44758U 19074AX  24203.82127264  .00013769  00000+0  94103-3 0  9997
2 44758  53.0546  21.6611 0001383  82.5042 277.6104 15.06417398258383
STARLINK-1054           
1 44759U 19074AY  24203.73648877  .00018876  00000+0  12822-2 0  9997
2 44759  53.0552  21.9554 0001245  71.2552 288.8572 15.06415812256018
STARLINK-1055           
1 44760U 19074AZ  24204.72751738  .00135016  00000+0  35383-2 0  9993
2 44760  53.0147 319.2911 0002945 334.1494  25.9361 15.37716880259511
STARLINK-1056           
1 44761U 19074BA  24203.73279669  .00001639  00000+0  12892-3 0  9996
2 44761  53.0571  21.9790 0001722 120.6528 239.4631 15.06401880258375
STARLINK-1057           
1 44762U 19074BB  24204.39811057  .00003357  00000+0  24404-3 0  9994
2 44762  53.0551 358.9822 0001412  66.7271 293.3867 15.06412351258740
STARLINK-1058           
1 44763U 19074BC  24204.51794732 -.00000585  00000+0 -20408-4 0  9992
2 44763  53.0553  18.7898 0001164  88.8269 271.2853 15.06414148258659
STARLINK-1059           
1 44764U 19074BD  24204.43570659  .00046304  00000+0  96171-3 0  9990
2 44764  53.0750 277.7755 0004141 303.2505  56.8104 15.45236731259923
STARLINK-1060           
1 44765U 19074BE  24204.41285257  .00008308  00000+0  57584-3 0  9993
2 44765  53.0556 358.9179 0001205  94.6112 265.5015 15.06409474258745
STARLINK-1061           
1 44766U 19074BF  24204.47736663  .00006651  00000+0  46493-3 0  9998
2 44766  53.0566  18.6371 0001481  91.9580 268.1578 15.06406240258657
STARLINK-1062           
1 44767U 19074BG  24204.52535058  .00006902  00000+0  48169-3 0  9991
2 44767  53.0552  18.9936 0001265 109.2738 250.8387 15.06407165258654
STARLINK-1063           
1 44768U 19074BH  24204.49210890  .00003459  00000+0  25096-3 0  9990
2 44768  53.0548  18.5600 0001435  90.6169 269.4985 15.06402684258655
STARLINK-1067           
1 44771U 19074BL  24204.48104706  .00003784  00000+0  27273-3 0  9991
2 44771  53.0559  18.6163 0001307  89.5317 270.5822 15.06403796258654
STARLINK-1068           
1 44772U 19074BM  24203.74201125  .00013797  00000+0  94297-3 0  9998
2 44772  53.0562   1.9290 0001328  95.8261 264.2879 15.06414640258647
STARLINK-1073           
1 44914U 20001A   24204.22301889  .00004798  00000+0  34065-3 0  9998
2 44914  53.0545 139.7710 0001319  90.0987 270.0154 15.06416294250094
STARLINK-1084           
1 44915U 20001B   24204.11981321  .00001629  00000+0  12819-3 0  9995
2 44915  53.0544 140.2318 0001282  90.4352 269.6784 15.06414572250083
STARLINK-1098           
1 44917U 20001D   24204.18984275  .00002003  00000+0  15330-3 0  9993
2 44917  53.0545 139.9129 0001249  95.5167 264.5964 15.06413316250094
STARLINK-1099           
1 44918U 20001E   24204.91667824  .00364393  00000+0  13922-2 0  9990
2 44918  53.0395  39.5839 0002804 225.0355 239.7471 15.85996278252301
STARLINK-1102           
1 44920U 20001G   24203.95792701  .00026166  00000+0  72799-3 0  9990
2 44920  53.0515  72.3989 0005412  88.3845 271.7777 15.36668878251033
STARLINK-1103           
1 44921U 20001H   24204.23313177  .00005486  00000+0  38677-3 0  9998
2 44921  53.0528 139.6802 0001423  95.8075 264.3076 15.06413401250075
STARLINK-1104           
1 44922U 20001J   24204.20458714  .00001999  00000+0  15300-3 0  9996
2 44922  53.0554 139.8573 0001304  93.9982 266.1156 15.06414398250093
STARLINK-1106           
1 44923U 20001K   24204.08227892  .00024267  00000+0  80626-3 0  9990
2 44923  53.0174  89.2481 0002299 348.6311  11.4636 15.31088107250792
STARLINK-1111           
1 44924U 20001L   24200.87502291  .00575978  16433-3  92474-3 0  9998
2 44924  53.0426 100.1281 0005034 214.0858 145.9850 16.02999587250340
STARLINK-1112           
1 44925U 20001M   24204.23407598  .00002449  00000+0  18317-3 0  9998
2 44925  53.0559 139.7202 0001412 101.2089 258.9058 15.06415428250095
STARLINK-1113           
1 44926U 20001N   24204.91667824  .00132446  00000+0  11592-2 0  9992
2 44926  53.0479  94.3325 0003334  97.0394 317.1886 15.67996168251488
STARLINK-1114           
1 44927U 20001P   24204.11243609 -.00002506  00000+0 -14925-3 0  9995
2 44927  53.0556 140.2659 0001309  97.3102 262.8036 15.06432450250086
STARLINK-1123           
1 44930U 20001S   24204.19352417  .00001679  00000+0  13150-3 0  9992
2 44930  53.0542 139.9000 0001202  83.9899 276.1227 15.06419545250097
STARLINK-1128           
1 44931U 20001T   24204.91667824  .00605054  00000+0  24659-2 0  9996
2 44931  53.0283  60.9284 0006410 236.5034 324.2225 15.84041495252007
STARLINK-1130 (DARKSAT) 
1 44932U 20001U   24204.77959869  .00001858  00000+0  14358-3 0  9992
2 44932  53.0527 137.2736 0001098  82.8038 277.3076 15.06406812251410
STARLINK-1144           
1 44933U 20001V   24204.20827020  .00000975  00000+0  84320-4 0  9990
2 44933  53.0546 139.8391 0001120  93.4671 266.6446 15.06414773251387
STARLINK-1071           
